[{"OBJECT_NAME":"NUSAT-44 (MARIA MITCHELL)","OBJECT_ID":"2024-043AA","EPOCH":"2026-03-09T22:12:18.524160","MEAN_MOTION":15.29764305,"ECCENTRICITY":0.0007331,"INCLINATION":97.5299,"RA_OF_ASC_NODE":207.7691,"ARG_OF_PERICENTER":214.9017,"MEAN_ANOMALY":145.1743,"EPHEMERIS_TYPE":0,"CLASSIFICATION_TYPE":"U","NORAD_CAT_ID":59122,"ELEMENT_SET_NO":999,"REV_AT_EPOCH":11209,"BSTAR":0.00061063193,"MEAN_MOTION_DOT":0.00017562,"MEAN_MOTION_DDOT":0},{"OBJECT_NAME":"STARLINK-33805","OBJECT_ID":"2025-076X","EPOCH":"2026-03-09T09:53:06.746496","MEAN_MOTION":15.27562677,"ECCENTRICITY":5.817e-5,"INCLINATION":42.9937,"RA_OF_ASC_NODE":323.6218,"ARG_OF_PERICENTER":345.9487,"MEAN_ANOMALY":14.1348,"EPHEMERIS_TYPE":0,"CLASSIFICATION_TYPE":"U","NORAD_CAT_ID":63590,"ELEMENT_SET_NO":999,"REV_AT_EPOCH":5178,"BSTAR":0.00075955134,"MEAN_MOTION_DOT":0.00020687,"MEAN_MOTION_DDOT":0}]
